[{"OBJECT_NAME":"STARLINK-32749","OBJECT_ID":"2025-003X","EPOCH":"2026-03-09T22:50:33.802368","MEAN_MOTION":15.27603175,"ECCENTRICITY":0.00017472,"INCLINATION":42.9982,"RA_OF_ASC_NODE":287.3095,"ARG_OF_PERICENTER":261.6441,"MEAN_ANOMALY":98.4213,"EPHEMERIS_TYPE":0,"CLASSIFICATION_TYPE":"U","NORAD_CAT_ID":62508,"ELEMENT_SET_NO":999,"REV_AT_EPOCH":6659,"BSTAR":0.0011957253,"MEAN_MOTION_DOT":0.00032812,"MEAN_MOTION_DDOT":0},{"OBJECT_NAME":"FLOCK 4G-3","OBJECT_ID":"2025-009AG","EPOCH":"2026-03-09T19:14:30.392160","MEAN_MOTION":15.2717931,"ECCENTRICITY":0.00013196,"INCLINATION":97.4062,"RA_OF_ASC_NODE":151.4068,"ARG_OF_PERICENTER":293.2042,"MEAN_ANOMALY":66.9058,"EPHEMERIS_TYPE":0,"CLASSIFICATION_TYPE":"U","NORAD_CAT_ID":62639,"ELEMENT_SET_NO":999,"REV_AT_EPOCH":6372,"BSTAR":0.0004338875,"MEAN_MOTION_DOT":0.00011494,"MEAN_MOTION_DDOT":0}]
